ZHUQUE-2E R/B           
1 69095U 26105A   26164.17536919  .00144012 -62417-6  35182-3 0  9994
2 69095  88.9700 194.8147 0450993 313.7527  42.7192 15.16363761  4542
2026-106A               
1 69097U 26106A   26164.23987718  .00007298  00000+0  43782-3 0  9992
2 69097  97.5100 246.3950 0014604 174.6198 185.5192 15.11149490  4386
2026-106B               
1 69098U 26106B   26164.25368640  .00004627  00000+0  29073-3 0  9992
2 69098  97.5079 246.3706 0015046 170.4909 189.6608 15.09647210  4383
2026-106C               
1 69099U 26106C   26164.23910438  .00007370  00000+0  44158-3 0  9998
2 69099  97.5103 246.3973 0014408 175.4033 184.7332 15.11191993  4387
2026-106D               
1 69100U 26106D   26164.23676981  .00001560  00000+0  96372-4 0  9994
2 69100  97.5075 246.3919 0014084 177.4110 182.7196 15.11264521  4380
2026-106E               
1 69101U 26106E   26164.23161563  .00006062  00000+0  36108-3 0  9992
2 69101  97.5084 246.3992 0016559 178.7261 181.4014 15.11449365  4388
LIJIAN-1 R/B            
1 69102U 26106F   26164.24898034  .00041377  26782-5  34826-3 0  9998
2 69102  97.5046 248.2335 0172206 268.7543  89.3977 15.53159400  4506
DRAGON CRS-34           
1 69103U 26107A   26164.12566316  .00008200  00000+0  15573-3 0  9997
2 69103  51.6335 320.1950 0004891 179.6545 180.4447 15.49201403570765
QIANFAN-145             
1 69104U 26108A   26163.97062110 -.01968653  00000+0 -12915+1 0  9998
2 69104  89.0102  22.6918 0013934 130.1457 230.0949 14.05987542  3747
QIANFAN-146             
1 69105U 26108B   26163.94827521 -.01767176  00000+0 -10461+1 0  9992
2 69105  89.0108  22.6703 0021935 125.3005 235.0237 14.11802528  3754
QIANFAN-147             
1 69106U 26108C   26163.95197562 -.01793424  00000+0 -11693+1 0  9992
2 69106  89.0109  22.6889 0013671 123.1850 237.0646 14.06622497  3747
QIANFAN-148             
1 69107U 26108D   26163.94558826 -.01889218  00000+0 -12176+1 0  9990
2 69107  89.0107  22.6876 0016213 127.1290 233.1377 14.06795030  3741
QIANFAN-149             
1 69108U 26108E   26163.94334854 -.01968863  00000+0 -12891+1 0  9992
2 69108  89.0107  22.6871 0015349 133.4018 226.8445 14.06086000  3749
QIANFAN-150             
1 69109U 26108F   26163.93129592 -.02146425  00000+0 -13446+1 0  9993
2 69109  89.0105  22.6882 0019841 107.5667 252.7686 14.08857959  3749
QIANFAN-151             
1 69110U 26108G   26163.99690409 -.02093185  00000+0 -13260+1 0  9999
2 69110  89.0103  22.6784 0020046 113.8988 246.4298 14.08126768  3752
QIANFAN-152             
1 69111U 26108H   26163.98731116 -.02079803  00000+0 -12864+1 0  9990
2 69111  89.0105  22.6765 0020473 108.8650 251.4757 14.09413231  3759
QIANFAN-153             
1 69112U 26108J   26163.98248933 -.02100444  00000+0 -13152+1 0  9998
2 69112  89.0100  22.6749 0020861 111.2260 249.1155 14.08778899  3752
QIANFAN-154             
1 69113U 26108K   26163.97500134 -.02146651  00000+0 -13150+1 0  9990
2 69113  89.0110  22.6748 0018666 100.7153 259.6134 14.10101285  3752
QIANFAN-155             
1 69114U 26108L   26163.97851563 -.01926425  00000+0 -12149+1 0  9997
2 69114  89.0108  22.6755 0019287 121.5570 238.7500 14.08040542  3752
QIANFAN-156             
1 69115U 26108M   26163.96413537 -.01951408  00000+0 -11885+1 0  9997
2 69115  89.0116  22.6746 0021312 111.6361 248.7096 14.09991528  3753
QIANFAN-157             
1 69116U 26108N   26164.00410581 -.01979358  00000+0 -11700+1 0  9990
2 69116  89.0104  22.6610 0021095 120.0487 240.2794 14.11688735  3761
QIANFAN-158             
1 69117U 26108P   26163.95487432 -.01993759  00000+0 -12059+1 0  9992
2 69117  89.0108  22.6713 0018921 109.6457 250.6772 14.10483230  3756
QIANFAN-159             
1 69118U 26108Q   26163.94709349 -.01862284  00000+0 -10966+1 0  9999
2 69118  89.0103  22.6692 0021403 121.5510 238.7769 14.11655025  3757
QIANFAN-160             
1 69119U 26108R   26163.94462367 -.02091966  00000+0 -12234+1 0  9998
2 69119  89.0107  22.6693 0015572 116.1921 244.0868 14.12554805  3754
QIANFAN-161             
1 69120U 26108S   26164.00676544 -.01899044  00000+0 -10983+1 0  9993
2 69120  89.0111  22.6615 0019349 125.5476 234.7518 14.12731874  3762
QIANFAN-162             
1 69121U 26108T   26164.07524993  .00000084  00000+0  34282-4 0  9998
2 69121  89.0114  22.6524 0016153 127.0663 233.2005 14.17313030  3771
CZ-8 R/B                
1 69122U 26108U   26164.21569402  .00000165  00000+0  47018-4 0  9990
2 69122  89.0110  22.5606 0068220  33.4639 327.0844 14.39193599  3833
SMILE                   
1 69123U 26109A   26144.65318427 -.00001976  00000+0 -42379-3 0  9994
2 69123  70.0007 229.2745 0009123 259.5159 100.4951 14.57062785   802
STARLINK-37726          
1 69124U 26110A   26164.29307013  .00028939  00000+0  53139-3 0  9990
2 69124  97.2841   0.4756 0001393  88.7001 271.4410 15.49210876  4991
STARLINK-37722          
1 69125U 26110B   26164.28965757  .00023538  00000+0  43298-3 0  9990
2 69125  97.2833   0.6332 0001346  84.4906 275.6499 15.49200673  5000
